NORAD_CAT_ID,OBJECT_NAME,OBJECT_TYPE,EPOCH,MEAN_MOTION,ECCENTRICITY,INCLINATION,RA_OF_ASC_NODE,ARG_OF_PERICENTER,MEAN_ANOMALY,BSTAR,MEAN_MOTION_DOT,MEAN_MOTION_DDOT,TLE_LINE0,TLE_LINE1,TLE_LINE2,SEMIMAJOR_AXIS,PERIOD,APOGEE,PERIGEE,DECAYED
51124.0,STARLINK-3389,PAYLOAD,2022-07-08 17:22:37,15.08826837,0.0002061,53.2177,194.4572,47.0672,313.0493,4.0146e-05,3.51e-06,0.0,0 STARLINK-3389,1 51124U 22005W   22189.72404456  .00000351  00000-0  40146-4 0  9994,2 51124  53.2177 194.4572 0002061  47.0672 313.0493 15.08826837 26455,6917.920999999999,95.438,541.211,538.36,0.0
51124.0,STARLINK-3389,PAYLOAD,2022-07-09 04:30:19,15.08826532,0.0002048,53.2178,192.3755,47.9643,312.1523,8.3198e-05,1.036e-05,0.0,0 STARLINK-3389,1 51124U 22005W   22190.18772779  .00001036  00000-0  83198-4 0  9997,2 51124  53.2178 192.3755 0002048  47.9643 312.1523 15.08826532 27635,6917.922,95.438,541.203,538.37,0.0
51124.0,STARLINK-3389,PAYLOAD,2022-07-09 09:16:29,15.08827468,0.0002072,53.2176,191.4834,47.7866,312.3302,8.859999999999999e-05,1.122e-05,0.0,0 STARLINK-3389,1 51124U 22005W   22190.38644907  .00001122  00000-0  88600-4 0  9999,2 51124  53.2176 191.4834 0002072  47.7866 312.3302 15.08827468 26559,6917.919,95.438,541.217,538.35,0.0
51124.0,STARLINK-3389,PAYLOAD,2022-07-09 17:13:24,15.08829866,0.0002093,53.2178,189.9966,48.2792,311.8379,9.2203e-05,1.179e-05,0.0,0 STARLINK-3389,1 51124U 22005W   22190.71765008  .00001179  00000-0  92203-4 0  9998,2 51124  53.2178 189.9966 0002093  48.2792 311.8379 15.08829866 26604,6917.911,95.438,541.224,538.328,0.0
51124.0,STARLINK-3389,PAYLOAD,2022-07-10 09:07:16,15.08834966,0.0002124,53.2176,187.0228,49.2705,310.8472,0.00010127,1.324e-05,0.0,0 STARLINK-3389,1 51124U 22005W   22191.38005111  .00001324  00000-0  10127-3 0  9990,2 51124  53.2176 187.0228 0002124  49.2705 310.8472 15.08834966 27816,6917.896,95.438,541.23,538.2909999999998,0.0
51124.0,STARLINK-3389,PAYLOAD,2022-07-10 17:04:11,15.08841174,0.0002147,53.2179,185.5363,50.0037,310.1144,0.00013565,1.871e-05,0.0,0 STARLINK-3389,1 51124U 22005W   22191.71124716  .00001871  00000-0  13565-3 0  9996,2 51124  53.2179 185.5363 0002147  50.0037 310.1144 15.08841174 26755,6917.877,95.437,541.227,538.257,0.0
51124.0,STARLINK-3389,PAYLOAD,2022-07-10 23:25:43,15.08846488,0.0002134,53.2179,184.3464,50.3123,309.8058,0.00015941,2.25e-05,0.0,0 STARLINK-3389,1 51124U 22005W   22191.97620292  .00002250  00000-0  15941-3 0  9996,2 51124  53.2179 184.3464 0002134  50.3123 309.8058 15.08846488 27909,6917.861,95.437,541.202,538.249,0.0
51124.0,STARLINK-3389,PAYLOAD,2022-07-11 08:58:02,15.0885378,0.0002158,53.2177,182.5622,51.0712,309.0472,0.00020116,2.916e-05,0.0,0 STARLINK-3389,1 51124U 22005W   22192.37363577  .00002916  00000-0  20116-3 0  9990,2 51124  53.2177 182.5622 0002158  51.0712 309.0472 15.08853780 26859,6917.8380000000025,95.437,541.196,538.21,0.0
51124.0,STARLINK-3389,PAYLOAD,2022-07-11 16:54:57,15.08858057,0.0002175,53.2179,181.0756,51.5367,308.582,0.0002185,3.193e-05,0.0,0 STARLINK-3389,1 51124U 22005W   22192.70483025  .00003193  00000-0  21850-3 0  9992,2 51124  53.2179 181.0756 0002175  51.5367 308.5820 15.08858057 28016,6917.825,95.436,541.195,538.186,0.0
51124.0,STARLINK-3389,PAYLOAD,2022-07-12 05:38:03,15.0884862,0.0002254,53.2183,178.6976,53.5748,306.5452,0.00010674,1.411e-05,0.0,0 STARLINK-3389,1 51124U 22005W   22193.23475709  .00001411  00000-0  10674-3 0  9994,2 51124  53.2183 178.6976 0002254  53.5748 306.5452 15.08848620 28092,6917.854,95.437,541.278,538.16,0.0
51124.0,STARLINK-3389,PAYLOAD,2022-07-12 10:24:12,15.08849712,0.0002257,53.218,177.8052,54.7285,305.3918,0.00010934,1.453e-05,0.0,0 STARLINK-3389,1 51124U 22005W   22193.43347536  .00001453  00000-0  10934-3 0  9997,2 51124  53.2180 177.8052 0002257  54.7285 305.3918 15.08849712 27015,6917.851,95.437,541.2769999999998,538.154,0.0
51124.0,STARLINK-3389,PAYLOAD,2022-07-13 02:18:02,15.08864207,0.0002282,53.2173,174.831,58.4496,301.6719,4.7163e-05,4.63e-06,0.0,0 STARLINK-3389,1 51124U 22005W   22194.09586029  .00000463  00000-0  47163-4 0  9997,2 51124  53.2173 174.8310 0002282  58.4496 301.6719 15.08864207 28222,6917.806,95.436,541.25,538.0930000000002,0.0
51124.0,STARLINK-3389,PAYLOAD,2022-07-13 08:39:35,15.08855212,0.0002028,53.2203,173.6425,47.4492,312.6671,-6.176e-05,-1.271e-05,0.0,0 STARLINK-3389,1 51124U 22005W   22194.36082504 -.00001271  00000-0 -61760-4 0  9995,2 51124  53.2203 173.6425 0002028  47.4492 312.6671 15.08855212 28261,6917.834,95.437,541.102,538.2959999999998,0.0
51124.0,STARLINK-3389,PAYLOAD,2022-07-14 05:19:37,15.08833386,0.0002158,53.2188,169.7762,54.9202,305.1992,-5.4457e-05,-1.155e-05,0.0,0 STARLINK-3389,1 51124U 22005W   22195.22195649 -.00001155  00000-0 -54457-4 0  9992,2 51124  53.2188 169.7762 0002158  54.9202 305.1992 15.08833386 28394,6917.901,95.438,541.258,538.273,0.0
51124.0,STARLINK-3389,PAYLOAD,2022-07-14 08:30:23,15.08832941,0.0002142,53.219,169.1816,52.0175,308.101,-8.159399999999999e-05,-1.586e-05,0.0,0 STARLINK-3389,1 51124U 22005W   22195.35443785 -.00001586  00000-0 -81594-4 0  9993,2 51124  53.2190 169.1816 0002142  52.0175 308.1010 15.08832941 27302,6917.901999999999,95.438,541.249,538.285,0.0
51124.0,STARLINK-3389,PAYLOAD,2022-07-14 14:51:55,15.08835607,0.000213,53.2189,167.9922,52.1008,308.0177,-7.4497e-05,-1.474e-05,0.0,0 STARLINK-3389,1 51124U 22005W   22195.61939655 -.00001474  00000-0 -74497-4 0  9998,2 51124  53.2189 167.9922 0002130  52.1008 308.0177 15.08835607 27346,6917.894,95.438,541.232,538.285,0.0
51124.0,STARLINK-3389,PAYLOAD,2022-07-15 05:10:23,15.0884848,0.0002112,53.218,165.3162,52.6875,307.431,-0.00015892,-2.817e-05,0.0,0 STARLINK-3389,1 51124U 22005W   22196.21555178 -.00002817  00000-0 -15892-3 0  9994,2 51124  53.2180 165.3162 0002112  52.6875 307.4310 15.08848480 28540,6917.854,95.437,541.181,538.258,0.0
51124.0,STARLINK-3389,PAYLOAD,2022-07-15 06:45:46,15.08851425,0.0002115,53.2179,165.0188,53.092,307.0266,-0.00018809,-3.282e-05,0.0,0 STARLINK-3389,1 51124U 22005W   22196.28179051 -.00003282  00000-0 -18809-3 0  9991,2 51124  53.2179 165.0188 0002115  53.0920 307.0266 15.08851425 27449,6917.845,95.437,541.174,538.247,0.0
51124.0,STARLINK-3389,PAYLOAD,2022-07-15 21:04:15,15.08839441,0.0002111,53.2181,162.3425,52.7774,307.3411,8.939700000000001e-05,1.135e-05,0.0,0 STARLINK-3389,1 51124U 22005W   22196.87795206  .00001135  00000-0  89397-4 0  9996,2 51124  53.2181 162.3425 0002111  52.7774 307.3411 15.08839441 27534,6917.882,95.438,541.207,538.2869999999998,0.0
51124.0,STARLINK-3389,PAYLOAD,2022-07-16 06:36:33,15.08843685,0.0002152,53.2181,160.5587,55.0802,305.0392,0.00024167,3.5600000000000005e-05,0.0,0 STARLINK-3389,1 51124U 22005W   22197.27538788  .00003560  00000-0  24167-3 0  9998,2 51124  53.2181 160.5587 0002152  55.0802 305.0392 15.08843685 28704,6917.869000000002,95.437,541.2230000000002,538.245,0.0
51124.0,STARLINK-3389,PAYLOAD,2022-07-16 14:33:29,15.08843634,0.0002176,53.2182,159.0719,55.0386,305.081,0.00021301,3.104e-05,0.0,0 STARLINK-3389,1 51124U 22005W   22197.60658925  .00003104  00000-0  21301-3 0  9992,2 51124  53.2182 159.0719 0002176  55.0386 305.0810 15.08843634 27649,6917.869000000002,95.437,541.24,538.229,0.0
51124.0,STARLINK-3389,PAYLOAD,2022-07-17 06:27:20,15.0884655,0.0002237,53.2177,156.0981,55.3847,304.7356,0.00012158,1.648e-05,0.0,0 STARLINK-3389,1 51124U 22005W   22198.26898783  .00001648  00000-0  12158-3 0  9994,2 51124  53.2177 156.0981 0002237  55.3847 304.7356 15.08846550 27746,6917.86,95.437,541.273,538.178,0.0
51124.0,STARLINK-3389,PAYLOAD,2022-07-17 14:24:16,15.08840857,0.0002256,53.2176,154.6116,55.4852,304.6353,8.9818e-06,-1.45e-06,0.0,0 STARLINK-3389,1 51124U 22005W   22198.60019013 -.00000145  00000-0  89818-5 0  9994,2 51124  53.2176 154.6116 0002256  55.4852 304.6353 15.08840857 27792,6917.878000000002,95.438,541.303,538.182,0.0
51124.0,STARLINK-3389,PAYLOAD,2022-07-18 03:07:21,15.08840232,0.0002168,53.2189,152.2326,56.2352,303.8847,-5.1805e-06,-3.71e-06,0.0,0 STARLINK-3389,1 51124U 22005W   22199.13011332 -.00000371  00000-0 -51805-5 0  9996,2 51124  53.2189 152.2326 0002168  56.2352 303.8847 15.08840232 28987,6917.88,95.438,541.244,538.245,0.0
51124.0,STARLINK-3389,PAYLOAD,2022-07-18 07:53:31,15.0883498,0.0002066,53.2186,151.3408,54.7689,305.3496,-7.6364e-05,-1.503e-05,0.0,0 STARLINK-3389,1 51124U 22005W   22199.32883836 -.00001503  00000-0 -76364-4 0  9997,2 51124  53.2186 151.3408 0002066  54.7689 305.3496 15.08834980 27909,6917.896,95.438,541.19,538.331,0.0
51124.0,STARLINK-3389,PAYLOAD,2022-07-18 14:15:03,15.08838801,0.0002129,53.2186,150.1511,55.4402,304.6791,-6.1463e-05,-1.266e-05,0.0,0 STARLINK-3389,1 51124U 22005W   22199.59379624 -.00001266  00000-0 -61463-4 0  9991,2 51124  53.2186 150.1511 0002129  55.4402 304.6791 15.08838801 27942,6917.884,95.438,541.222,538.276,0.0
51124.0,STARLINK-3389,PAYLOAD,2022-07-19 06:08:54,15.08845803,0.0002111,53.2185,147.1774,56.3938,303.7255,5.1813e-05,5.37e-06,0.0,0 STARLINK-3389,1 51124U 22005W   22200.25618978  .00000537  00000-0  51813-4 0  9991,2 51124  53.2185 147.1774 0002111  56.3938 303.7255 15.08845803 29153,6917.863,95.437,541.188,538.2669999999998,0.0
51124.0,STARLINK-3389,PAYLOAD,2022-07-19 14:05:49,15.08849911,0.0002122,53.2186,145.6909,56.7816,303.338,0.00016409,2.325e-05,0.0,0 STARLINK-3389,1 51124U 22005W   22200.58738421  .00002325  00000-0  16409-3 0  9991,2 51124  53.2186 145.6909 0002122  56.7816 303.3380 15.08849911 28099,6917.85,95.437,541.183,538.247,0.0
51124.0,STARLINK-3389,PAYLOAD,2022-07-20 05:59:43,15.08821958,0.0002352,53.218,142.7177,58.8096,301.3127,0.0011327,0.00017776,0.0,0 STARLINK-3389,1 51124U 22005W   22201.24980698  .00017776  00000-0  11327-2 0  9999,2 51124  53.2180 142.7177 0002352  58.8096 301.3127 15.08821958 28195,6917.936,95.439,541.428,538.173,0.0
